SL-16 R/B               
1 22803U 93059B   26104.82616655 -.00000007  00000+0  20273-4 0  9998
2 22803  70.9895 294.9223 0016379 162.4201 197.7493 14.17239319684657
ARIANE 40 R/B           
1 22830U 93061H   26104.80072789  .00000113  00000+0  57209-4 0  9999
2 22830  98.4855 172.9641 0011006 171.2148 188.9231 14.32880228699271
COSMOS 2278             
1 23087U 94023A   26104.73751223  .00000334  00000+0  19894-3 0  9994
2 23087  71.0508  99.6777 0009774 322.2878  37.7558 14.14379542649900
SL-16 R/B               
1 23088U 94023B   26104.13146107 -.00000219  00000+0 -88680-4 0  9992
2 23088  71.0025 356.4578 0005611 255.1957 104.8544 14.15019300651106
SL-16 R/B               
1 23343U 94074B   26104.86387155  .00000230  00000+0  37362-4 0  9994
2 23343  97.7055 134.2076 0008095 101.5492  71.3739 14.79448412692592
SL-16 R/B               
1 23405U 94077B   26104.87657718  .00000134  00000+0  93132-4 0  9992
2 23405  70.9811 276.3567 0001090 161.2451 198.8712 14.15566981621357
ARIANE 40+ R/B          
1 23561U 95021B   26104.82504744  .00000145  00000+0  60186-4 0  9995
2 23561  98.4441 175.8071 0007398  42.9688  69.1419 14.39798158624447
SL-16 R/B               
1 23705U 95058B   26104.74400087  .00000299  00000+0  17742-3 0  9990
2 23705  71.0191 104.5596 0010604  59.5884 300.6286 14.15502517572952
SL-16 R/B               
1 24298U 96051B   26104.22237253  .00000050  00000+0  53859-4 0  9993
2 24298  70.7581 100.0293 0012671  87.8841 272.3730 14.12425119526662
ORBVIEW 2 (SEASTAR)     
1 24883U 97037A   26104.87172855  .00000155  00000+0  70040-4 0  9992
2 24883  98.8628 270.1540 0001497 340.9954  19.1174 14.35520173513667
SL-16 R/B               
1 25400U 98043G   26104.86561282  .00000019  00000+0  26826-4 0  9993
2 25400  98.8312  58.4993 0008745 270.0326  89.9851 14.26058127444149
SL-16 R/B               
1 25407U 98045B   26104.73720712  .00000109  00000+0  79216-4 0  9994
2 25407  71.0090 105.7668 0008871 317.0888  42.9543 14.16198662432201
ISS (ZARYA)             
1 25544U 98067A   26104.84437811  .00006957  00000+0  13466-3 0  9998
2 25544  51.6321 253.5853 0006504 313.2650  46.7795 15.48918397561933
CZ-4B R/B               
1 25732U 99025C   26104.65467557  .00000017  00000+0  29068-4 0  9998
2 25732  98.6557 148.0720 0036131 240.5139 229.7655 14.18272410393260
OKEAN-O                 
1 25860U 99039A   26104.61093990  .00000320  00000+0  48705-4 0  9993
2 25860  97.9372 164.1239 0001182 114.8873 245.2462 14.80391633439706
SL-16 R/B               
1 25861U 99039B   26104.62463566  .00000275  00000+0  41582-4 0  9990
2 25861  97.9895 163.6538 0015768 137.1976 223.0468 14.81780429442182
DELTA 2 R/B             
1 25876U 99041E   26104.82738596  .00000352  00000+0  96863-4 0  9997
2 25876  51.7596 156.9145 0502547  94.9950 270.8523 14.11916366368139
