[{"OBJECT_NAME":"SL-16 R/B","OBJECT_ID":"1993-059B","EPOCH":"2026-04-14T19:49:40.789920","MEAN_MOTION":14.17239319,"ECCENTRICITY":0.0016379,"INCLINATION":70.9895,"RA_OF_ASC_NODE":294.9223,"ARG_OF_PERICENTER":162.4201,"MEAN_ANOMALY":197.7493,"EPHEMERIS_TYPE":0,"CLASSIFICATION_TYPE":"U","NORAD_CAT_ID":22803,"ELEMENT_SET_NO":999,"REV_AT_EPOCH":68465,"BSTAR":2.0273e-5,"MEAN_MOTION_DOT":-7.0e-8,"MEAN_MOTION_DDOT":0},{"OBJECT_NAME":"ARIANE 40 R/B","OBJECT_ID":"1993-061H","EPOCH":"2026-04-14T19:13:02.889696","MEAN_MOTION":14.32880228,"ECCENTRICITY":0.0011006,"INCLINATION":98.4855,"RA_OF_ASC_NODE":172.9641,"ARG_OF_PERICENTER":171.2148,"MEAN_ANOMALY":188.9231,"EPHEMERIS_TYPE":0,"CLASSIFICATION_TYPE":"U","NORAD_CAT_ID":22830,"ELEMENT_SET_NO":999,"REV_AT_EPOCH":69927,"BSTAR":5.7209e-5,"MEAN_MOTION_DOT":1.13e-6,"MEAN_MOTION_DDOT":0},{"OBJECT_NAME":"COSMOS 2278","OBJECT_ID":"1994-023A","EPOCH":"2026-04-14T17:42:01.056672","MEAN_MOTION":14.14379542,"ECCENTRICITY":0.0009774,"INCLINATION":71.0508,"RA_OF_ASC_NODE":99.6777,"ARG_OF_PERICENTER":322.2878,"MEAN_ANOMALY":37.7558,"EPHEMERIS_TYPE":0,"CLASSIFICATION_TYPE":"U","NORAD_CAT_ID":23087,"ELEMENT_SET_NO":999,"REV_AT_EPOCH":64990,"BSTAR":0.00019894,"MEAN_MOTION_DOT":3.34e-6,"MEAN_MOTION_DDOT":0},{"OBJECT_NAME":"SL-16 R/B","OBJECT_ID":"1994-023B","EPOCH":"2026-04-14T03:09:18.236448","MEAN_MOTION":14.150193,"ECCENTRICITY":0.00056118,"INCLINATION":71.0025,"RA_OF_ASC_NODE":356.4578,"ARG_OF_PERICENTER":255.1957,"MEAN_ANOMALY":104.8544,"EPHEMERIS_TYPE":0,"CLASSIFICATION_TYPE":"U","NORAD_CAT_ID":23088,"ELEMENT_SET_NO":999,"REV_AT_EPOCH":65110,"BSTAR":-8.8680375e-5,"MEAN_MOTION_DOT":-2.19e-6,"MEAN_MOTION_DDOT":0},{"OBJECT_NAME":"SL-16 R/B","OBJECT_ID":"1994-074B","EPOCH":"2026-04-14T20:43:58.501920","MEAN_MOTION":14.79448412,"ECCENTRICITY":0.0008095,"INCLINATION":97.7055,"RA_OF_ASC_NODE":134.2076,"ARG_OF_PERICENTER":101.5492,"MEAN_ANOMALY":71.3739,"EPHEMERIS_TYPE":0,"CLASSIFICATION_TYPE":"U","NORAD_CAT_ID":23343,"ELEMENT_SET_NO":999,"REV_AT_EPOCH":69259,"BSTAR":3.7362e-5,"MEAN_MOTION_DOT":2.3e-6,"MEAN_MOTION_DDOT":0},{"OBJECT_NAME":"SL-16 R/B","OBJECT_ID":"1994-077B","EPOCH":"2026-04-14T21:02:16.268352","MEAN_MOTION":14.15566981,"ECCENTRICITY":0.000109,"INCLINATION":70.9811,"RA_OF_ASC_NODE":276.3567,"ARG_OF_PERICENTER":161.2451,"MEAN_ANOMALY":198.8712,"EPHEMERIS_TYPE":0,"CLASSIFICATION_TYPE":"U","NORAD_CAT_ID":23405,"ELEMENT_SET_NO":999,"REV_AT_EPOCH":62135,"BSTAR":9.3132e-5,"MEAN_MOTION_DOT":1.34e-6,"MEAN_MOTION_DDOT":0},{"OBJECT_NAME":"ARIANE 40+ R/B","OBJECT_ID":"1995-021B","EPOCH":"2026-04-14T19:48:04.098816","MEAN_MOTION":14.39798158,"ECCENTRICITY":0.0007398,"INCLINATION":98.4441,"RA_OF_ASC_NODE":175.8071,"ARG_OF_PERICENTER":42.9688,"MEAN_ANOMALY":69.1419,"EPHEMERIS_TYPE":0,"CLASSIFICATION_TYPE":"U","NORAD_CAT_ID":23561,"ELEMENT_SET_NO":999,"REV_AT_EPOCH":62444,"BSTAR":6.0186e-5,"MEAN_MOTION_DOT":1.45e-6,"MEAN_MOTION_DDOT":0},{"OBJECT_NAME":"SL-16 R/B","OBJECT_ID":"1995-058B","EPOCH":"2026-04-14T17:51:21.675168","MEAN_MOTION":14.15502517,"ECCENTRICITY":0.0010604,"INCLINATION":71.0191,"RA_OF_ASC_NODE":104.5596,"ARG_OF_PERICENTER":59.5884,"MEAN_ANOMALY":300.6286,"EPHEMERIS_TYPE":0,"CLASSIFICATION_TYPE":"U","NORAD_CAT_ID":23705,"ELEMENT_SET_NO":999,"REV_AT_EPOCH":57295,"BSTAR":0.00017742,"MEAN_MOTION_DOT":2.99e-6,"MEAN_MOTION_DDOT":0},{"OBJECT_NAME":"SL-16 R/B","OBJECT_ID":"1996-051B","EPOCH":"2026-04-14T05:20:12.986592","MEAN_MOTION":14.12425119,"ECCENTRICITY":0.00126716,"INCLINATION":70.7581,"RA_OF_ASC_NODE":100.0293,"ARG_OF_PERICENTER":87.8841,"MEAN_ANOMALY":272.373,"EPHEMERIS_TYPE":0,"CLASSIFICATION_TYPE":"U","NORAD_CAT_ID":24298,"ELEMENT_SET_NO":999,"REV_AT_EPOCH":52666,"BSTAR":5.3859368e-5,"MEAN_MOTION_DOT":5.0e-7,"MEAN_MOTION_DDOT":0},{"OBJECT_NAME":"ORBVIEW 2 (SEASTAR)","OBJECT_ID":"1997-037A","EPOCH":"2026-04-14T20:55:17.346720","MEAN_MOTION":14.35520173,"ECCENTRICITY":0.0001497,"INCLINATION":98.8628,"RA_OF_ASC_NODE":270.154,"ARG_OF_PERICENTER":340.9954,"MEAN_ANOMALY":19.1174,"EPHEMERIS_TYPE":0,"CLASSIFICATION_TYPE":"U","NORAD_CAT_ID":24883,"ELEMENT_SET_NO":999,"REV_AT_EPOCH":51366,"BSTAR":7.004e-5,"MEAN_MOTION_DOT":1.55e-6,"MEAN_MOTION_DDOT":0},{"OBJECT_NAME":"SL-16 R/B","OBJECT_ID":"1998-043G","EPOCH":"2026-04-14T20:46:28.947648","MEAN_MOTION":14.26058127,"ECCENTRICITY":0.0008745,"INCLINATION":98.8312,"RA_OF_ASC_NODE":58.4993,"ARG_OF_PERICENTER":270.0326,"MEAN_ANOMALY":89.9851,"EPHEMERIS_TYPE":0,"CLASSIFICATION_TYPE":"U","NORAD_CAT_ID":25400,"ELEMENT_SET_NO":999,"REV_AT_EPOCH":44414,"BSTAR":2.6826e-5,"MEAN_MOTION_DOT":1.9e-7,"MEAN_MOTION_DDOT":0},{"OBJECT_NAME":"SL-16 R/B","OBJECT_ID":"1998-045B","EPOCH":"2026-04-14T17:41:34.695168","MEAN_MOTION":14.16198662,"ECCENTRICITY":0.0008871,"INCLINATION":71.009,"RA_OF_ASC_NODE":105.7668,"ARG_OF_PERICENTER":317.0888,"MEAN_ANOMALY":42.9543,"EPHEMERIS_TYPE":0,"CLASSIFICATION_TYPE":"U","NORAD_CAT_ID":25407,"ELEMENT_SET_NO":999,"REV_AT_EPOCH":43220,"BSTAR":7.9216e-5,"MEAN_MOTION_DOT":1.09e-6,"MEAN_MOTION_DDOT":0},{"OBJECT_NAME":"ISS (ZARYA)","OBJECT_ID":"1998-067A","EPOCH":"2026-04-14T20:15:54.268704","MEAN_MOTION":15.48918397,"ECCENTRICITY":0.0006504,"INCLINATION":51.6321,"RA_OF_ASC_NODE":253.5853,"ARG_OF_PERICENTER":313.265,"MEAN_ANOMALY":46.7795,"EPHEMERIS_TYPE":0,"CLASSIFICATION_TYPE":"U","NORAD_CAT_ID":25544,"ELEMENT_SET_NO":999,"REV_AT_EPOCH":56193,"BSTAR":0.00013466,"MEAN_MOTION_DOT":6.957e-5,"MEAN_MOTION_DDOT":0},{"OBJECT_NAME":"CZ-4B R/B","OBJECT_ID":"1999-025C","EPOCH":"2026-04-14T15:42:43.969248","MEAN_MOTION":14.1827241,"ECCENTRICITY":0.0036131,"INCLINATION":98.6557,"RA_OF_ASC_NODE":148.072,"ARG_OF_PERICENTER":240.5139,"MEAN_ANOMALY":229.7655,"EPHEMERIS_TYPE":0,"CLASSIFICATION_TYPE":"U","NORAD_CAT_ID":25732,"ELEMENT_SET_NO":999,"REV_AT_EPOCH":39326,"BSTAR":2.9068e-5,"MEAN_MOTION_DOT":1.7e-7,"MEAN_MOTION_DDOT":0},{"OBJECT_NAME":"OKEAN-O","OBJECT_ID":"1999-039A","EPOCH":"2026-04-14T14:39:45.207360","MEAN_MOTION":14.80391633,"ECCENTRICITY":0.0001182,"INCLINATION":97.9372,"RA_OF_ASC_NODE":164.1239,"ARG_OF_PERICENTER":114.8873,"MEAN_ANOMALY":245.2462,"EPHEMERIS_TYPE":0,"CLASSIFICATION_TYPE":"U","NORAD_CAT_ID":25860,"ELEMENT_SET_NO":999,"REV_AT_EPOCH":43970,"BSTAR":4.8705e-5,"MEAN_MOTION_DOT":3.2e-6,"MEAN_MOTION_DDOT":0},{"OBJECT_NAME":"SL-16 R/B","OBJECT_ID":"1999-039B","EPOCH":"2026-04-14T14:59:28.521024","MEAN_MOTION":14.81780429,"ECCENTRICITY":0.0015768,"INCLINATION":97.9895,"RA_OF_ASC_NODE":163.6538,"ARG_OF_PERICENTER":137.1976,"MEAN_ANOMALY":223.0468,"EPHEMERIS_TYPE":0,"CLASSIFICATION_TYPE":"U","NORAD_CAT_ID":25861,"ELEMENT_SET_NO":999,"REV_AT_EPOCH":44218,"BSTAR":4.1582e-5,"MEAN_MOTION_DOT":2.75e-6,"MEAN_MOTION_DDOT":0},{"OBJECT_NAME":"DELTA 2 R/B","OBJECT_ID":"1999-041E","EPOCH":"2026-04-14T19:51:26.146944","MEAN_MOTION":14.11916366,"ECCENTRICITY":0.0502547,"INCLINATION":51.7596,"RA_OF_ASC_NODE":156.9145,"ARG_OF_PERICENTER":94.995,"MEAN_ANOMALY":270.8523,"EPHEMERIS_TYPE":0,"CLASSIFICATION_TYPE":"U","NORAD_CAT_ID":25876,"ELEMENT_SET_NO":999,"REV_AT_EPOCH":36813,"BSTAR":9.6863e-5,"MEAN_MOTION_DOT":3.52e-6,"MEAN_MOTION_DDOT":0}]
